{
  "type": "FeatureCollection",
  "features": [
    {
      "type": "Feature",
      "properties": {
        "norad_id": 30719,
        "name": "FENGYUN 1C DEB",
        "group": "fengyun-1c-debris",
        "lat": 23.33780061572911,
        "lon": -41.33405870651761,
        "alt_km": 687.4382448572987,
        "timestamp": "2025-12-18T14:52:08.304064+00:00",
        "meta_object_name": "FENGYUN 1C DEB",
        "meta_object_id": "1999-025ASD",
        "meta_epoch": "2025-12-17T08:32:12.739200",
        "meta_mean_motion": 14.59394976,
        "meta_eccentricity": 0.0010871,
        "meta_inclination": 98.887,
        "meta_ra_of_asc_node": 133.4427,
        "meta_arg_of_pericenter": 182.7616,
        "meta_mean_anomaly": 177.3523,
        "meta_ephemeris_type": 0,
        "meta_classification_type": "U",
        "meta_norad_cat_id": 30719,
        "meta_element_set_no": 999,
        "meta_rev_at_epoch": 97516,
        "meta_bstar": 0.0026615322,
        "meta_mean_motion_dot": 0.00012583,
        "meta_mean_motion_ddot": 0,
        "tle_line1": "1 30719U 99025ASD 25351.35570300  .00012583  00000+0  26615-2 0  9994",
        "tle_line2": "2 30719  98.8870 133.4427 0010871 182.7616 177.3523 14.59394976975167"
      },
      "geometry": {
        "type": "Point",
        "coordinates": [
          -41.33405870651761,
          23.33780061572911
        ]
      }
    },
    {
      "type": "Feature",
      "properties": {
        "norad_id": 30720,
        "name": "FENGYUN 1C DEB",
        "group": "fengyun-1c-debris",
        "lat": -69.78931345606402,
        "lon": -39.28853346959531,
        "alt_km": 790.1963321034855,
        "timestamp": "2025-12-18T14:52:08.304088+00:00",
        "meta_object_name": "FENGYUN 1C DEB",
        "meta_object_id": "1999-025ASE",
        "meta_epoch": "2025-12-18T06:06:36.057600",
        "meta_mean_motion": 14.29134102,
        "meta_eccentricity": 0.00324098,
        "meta_inclination": 99.0363,
        "meta_ra_of_asc_node": 165.9451,
        "meta_arg_of_pericenter": 312.9007,
        "meta_mean_anomaly": 222.6265,
        "meta_ephemeris_type": 0,
        "meta_classification_type": "U",
        "meta_norad_cat_id": 30720,
        "meta_element_set_no": 999,
        "meta_rev_at_epoch": 97567,
        "meta_bstar": 0.0003238264,
        "meta_mean_motion_dot": 7.78e-06,
        "meta_mean_motion_ddot": 0,
        "tle_line1": "1 30720U 99025ASE 25352.25458400  .00000778  00000+0  32383-3 0  9995",
        "tle_line2": "2 30720  99.0363 165.9451 0032409 312.9007 222.6265 14.29134102975671"
      },
      "geometry": {
        "type": "Point",
        "coordinates": [
          -39.28853346959531,
          -69.78931345606402
        ]
      }
    },
    {
      "type": "Feature",
      "properties": {
        "norad_id": 30721,
        "name": "FENGYUN 1C DEB",
        "group": "fengyun-1c-debris",
        "lat": -45.35675991605778,
        "lon": 133.26374144369746,
        "alt_km": 641.4341324222369,
        "timestamp": "2025-12-18T14:52:08.304102+00:00",
        "meta_object_name": "FENGYUN 1C DEB",
        "meta_object_id": "1999-025ASF",
        "meta_epoch": "2025-12-18T02:16:18.979968",
        "meta_mean_motion": 14.72084281,
        "meta_eccentricity": 0.00282103,
        "meta_inclination": 98.7091,
        "meta_ra_of_asc_node": 123.7732,
        "meta_arg_of_pericenter": 323.3448,
        "meta_mean_anomaly": 90.7951,
        "meta_ephemeris_type": 0,
        "meta_classification_type": "U",
        "meta_norad_cat_id": 30721,
        "meta_element_set_no": 999,
        "meta_rev_at_epoch": 97921,
        "meta_bstar": 0.0023354951,
        "meta_mean_motion_dot": 0.0001475,
        "meta_mean_motion_ddot": 0,
        "tle_line1": "1 30721U 99025ASF 25352.09466412  .00014750  00000+0  23355-2 0  9993",
        "tle_line2": "2 30721  98.7091 123.7732 0028210 323.3448  90.7951 14.72084281979210"
      },
      "geometry": {
        "type": "Point",
        "coordinates": [
          133.26374144369746,
          -45.35675991605778
        ]
      }
    },
    {
      "type": "Feature",
      "properties": {
        "norad_id": 30723,
        "name": "FENGYUN 1C DEB",
        "group": "fengyun-1c-debris",
        "lat": -77.2893522734161,
        "lon": -144.8067038496171,
        "alt_km": 750.2085264226625,
        "timestamp": "2025-12-18T14:52:08.304113+00:00",
        "meta_object_name": "FENGYUN 1C DEB",
        "meta_object_id": "1999-025ASH",
        "meta_epoch": "2025-12-18T05:35:32.502048",
        "meta_mean_motion": 14.41413575,
        "meta_eccentricity": 0.0015934,
        "meta_inclination": 98.8442,
        "meta_ra_of_asc_node": 78.4468,
        "meta_arg_of_pericenter": 245.752,
        "meta_mean_anomaly": 170.4461,
        "meta_ephemeris_type": 0,
        "meta_classification_type": "U",
        "meta_norad_cat_id": 30723,
        "meta_element_set_no": 999,
        "meta_rev_at_epoch": 97450,
        "meta_bstar": 0.0017915378,
        "meta_mean_motion_dot": 5.773e-05,
        "meta_mean_motion_ddot": 0,
        "tle_line1": "1 30723U 99025ASH 25352.23301507  .00005773  00000+0  17915-2 0  9994",
        "tle_line2": "2 30723  98.8442  78.4468 0015934 245.7520 170.4461 14.41413575974509"
      },
      "geometry": {
        "type": "Point",
        "coordinates": [
          -144.8067038496171,
          -77.2893522734161
        ]
      }
    },
    {
      "type": "Feature",
      "properties": {
        "norad_id": 30724,
        "name": "FENGYUN 1C DEB",
        "group": "fengyun-1c-debris",
        "lat": 75.78958244764159,
        "lon": 137.37842582578344,
        "alt_km": 824.6895626102196,
        "timestamp": "2025-12-18T14:52:08.304124+00:00",
        "meta_object_name": "FENGYUN 1C DEB",
        "meta_object_id": "1999-025ASJ",
        "meta_epoch": "2025-12-17T11:53:17.210112",
        "meta_mean_motion": 14.37060559,
        "meta_eccentricity": 0.0093002,
        "meta_inclination": 99.3149,
        "meta_ra_of_asc_node": 176.5637,
        "meta_arg_of_pericenter": 246.0448,
        "meta_mean_anomaly": 140.7994,
        "meta_ephemeris_type": 0,
        "meta_classification_type": "U",
        "meta_norad_cat_id": 30724,
        "meta_element_set_no": 999,
        "meta_rev_at_epoch": 98521,
        "meta_bstar": 0.00035250464,
        "meta_mean_motion_dot": 1.046e-05,
        "meta_mean_motion_ddot": 0,
        "tle_line1": "1 30724U 99025ASJ 25351.49533808  .00001046  00000+0  35250-3 0  9995",
        "tle_line2": "2 30724  99.3149 176.5637 0093002 246.0448 140.7994 14.37060559985219"
      },
      "geometry": {
        "type": "Point",
        "coordinates": [
          137.37842582578344,
          75.78958244764159
        ]
      }
    },
    {
      "type": "Feature",
      "properties": {
        "norad_id": 30725,
        "name": "FENGYUN 1C DEB",
        "group": "fengyun-1c-debris",
        "lat": 25.165650322050094,
        "lon": -114.22343887377697,
        "alt_km": 886.1720219669623,
        "timestamp": "2025-12-18T14:52:08.304134+00:00",
        "meta_object_name": "FENGYUN 1C DEB",
        "meta_object_id": "1999-025ASK",
        "meta_epoch": "2025-12-18T04:13:47.040960",
        "meta_mean_motion": 14.16096218,
        "meta_eccentricity": 0.00869506,
        "meta_inclination": 99.0078,
        "meta_ra_of_asc_node": 61.0543,
        "meta_arg_of_pericenter": 14.8425,
        "meta_mean_anomaly": 40.2494,
        "meta_ephemeris_type": 0,
        "meta_classification_type": "U",
        "meta_norad_cat_id": 30725,
        "meta_element_set_no": 999,
        "meta_rev_at_epoch": 96425,
        "meta_bstar": 0.00092452617,
        "meta_mean_motion_dot": 1.85e-05,
        "meta_mean_motion_ddot": 0,
        "tle_line1": "1 30725U 99025ASK 25352.17623890  .00001850  00000+0  92453-3 0  9994",
        "tle_line2": "2 30725  99.0078  61.0543 0086950  14.8425  40.2494 14.16096218964250"
      },
      "geometry": {
        "type": "Point",
        "coordinates": [
          -114.22343887377697,
          25.165650322050094
        ]
      }
    },
    {
      "type": "Feature",
      "properties": {
        "norad_id": 30726,
        "name": "FENGYUN 1C DEB",
        "group": "fengyun-1c-debris",
        "lat": 42.479624444215524,
        "lon": -14.062171321024458,
        "alt_km": 913.2014071490212,
        "timestamp": "2025-12-18T14:52:08.304145+00:00",
        "meta_object_name": "FENGYUN 1C DEB",
        "meta_object_id": "1999-025ASL",
        "meta_epoch": "2025-12-18T06:43:44.349024",
        "meta_mean_motion": 14.09322212,
        "meta_eccentricity": 0.0078245,
        "meta_inclination": 99.2674,
        "meta_ra_of_asc_node": 354.1874,
        "meta_arg_of_pericenter": 210.6992,
        "meta_mean_anomaly": 272.9319,
        "meta_ephemeris_type": 0,
        "meta_classification_type": "U",
        "meta_norad_cat_id": 30726,
        "meta_element_set_no": 999,
        "meta_rev_at_epoch": 96061,
        "meta_bstar": 0.00083436664,
        "meta_mean_motion_dot": 1.448e-05,
        "meta_mean_motion_ddot": 0,
        "tle_line1": "1 30726U 99025ASL 25352.28037441  .00001448  00000+0  83437-3 0  9993",
        "tle_line2": "2 30726  99.2674 354.1874 0078245 210.6992 272.9319 14.09322212960615"
      },
      "geometry": {
        "type": "Point",
        "coordinates": [
          -14.062171321024458,
          42.479624444215524
        ]
      }
    }
  ]
}